NORAD_CAT_ID,OBJECT_NAME,OBJECT_TYPE,EPOCH,MEAN_MOTION,ECCENTRICITY,INCLINATION,RA_OF_ASC_NODE,ARG_OF_PERICENTER,MEAN_ANOMALY,BSTAR,MEAN_MOTION_DOT,MEAN_MOTION_DDOT,TLE_LINE0,TLE_LINE1,TLE_LINE2,SEMIMAJOR_AXIS,PERIOD,APOGEE,PERIGEE,DECAYED
50825.0,STARLINK-3332,PAYLOAD,2024-06-23 04:03:43,15.08841356,0.0001308,53.2177,92.7027,89.8456,270.2686,5.1964e-05,5.39e-06,0.0,0 STARLINK-3332,1 50825U 22001Y   24175.16925330  .00000539  00000-0  51964-4 0  9999,2 50825  53.2177  92.7027 0001308  89.8456 270.2686 15.08841356137391,6917.876,95.437,540.646,538.836,0.0
50825.0,STARLINK-3332,PAYLOAD,2024-06-23 21:32:57,15.0884438,0.0001326,53.2177,89.4315,95.5341,264.5802,6.2074e-05,7e-06,0.0,0 STARLINK-3332,1 50825U 22001Y   24175.89788921  .00000700  00000-0  62074-4 0  9996,2 50825  53.2177  89.4315 0001326  95.5341 264.5802 15.08844380136239,6917.867,95.437,540.649,538.815,0.0
50825.0,STARLINK-3332,PAYLOAD,2024-06-24 00:43:43,15.08845455,0.0001356,53.2177,88.8369,92.4209,267.6938,7.1504e-05,8.5e-06,0.0,0 STARLINK-3332,1 50825U 22001Y   24176.03036809  .00000850  00000-0  71504-4 0  9998,2 50825  53.2177  88.8369 0001356  92.4209 267.6938 15.08845455136253,6917.864,95.437,540.667,538.791,0.0
50825.0,STARLINK-3332,PAYLOAD,2024-06-24 21:23:44,15.08839603,0.0001348,53.217,84.9712,82.0464,278.0681,2.1252e-05,5e-07,0.0,0 STARLINK-3332,1 50825U 22001Y   24176.89149273  .00000050  00000-0  21252-4 0  9999,2 50825  53.2170  84.9712 0001348  82.0464 278.0681 15.08839603137658,6917.882,95.438,540.679,538.814,0.0
50825.0,STARLINK-3332,PAYLOAD,2024-06-25 00:34:31,15.08837207,0.0001276,53.2178,84.3763,93.6792,266.4346,-4.8701e-06,-3.65e-06,0.0,0 STARLINK-3332,1 50825U 22001Y   24177.02397442 -.00000365  00000-0 -48701-5 0  9998,2 50825  53.2178  84.3763 0001276  93.6792 266.4346 15.08837207136407,6917.889,95.438,540.637,538.871,0.0
50825.0,STARLINK-3332,PAYLOAD,2024-06-25 22:49:55,15.08840904,0.000132,53.2183,80.2138,101.4161,258.6979,-2.2307e-06,-3.23e-06,0.0,0 STARLINK-3332,1 50825U 22001Y   24177.95133176 -.00000323  00000-0 -22307-5 0  9990,2 50825  53.2183  80.2138 0001320 101.4161 258.6979 15.08840904136540,6917.878,95.437,540.656,538.829,0.0
50825.0,STARLINK-3332,PAYLOAD,2024-06-26 22:40:42,15.08833046,0.000118,53.2181,75.7548,81.5933,278.5193,1.6588e-05,-2.4e-07,0.0,0 STARLINK-3332,1 50825U 22001Y   24178.94493896 -.00000024  00000-0  16588-4 0  9998,2 50825  53.2181  75.7548 0001180  81.5933 278.5193 15.08833046136695,6917.902,95.438,540.583,538.95,0.0
50825.0,STARLINK-3332,PAYLOAD,2024-06-27 00:16:05,15.08832935,0.0001192,53.2178,75.4558,72.2017,287.9105,1.3396e-05,-7.5e-07,0.0,0 STARLINK-3332,1 50825U 22001Y   24179.01117953 -.00000075  00000-0  13396-4 0  9994,2 50825  53.2178  75.4558 0001192  72.2017 287.9105 15.08832935137977,6917.902,95.438,540.592,538.942,0.0
50825.0,STARLINK-3332,PAYLOAD,2024-06-27 09:48:24,15.08839119,0.0001139,53.2181,73.6776,101.7992,258.3128,6.1591e-05,6.93e-06,0.0,0 STARLINK-3332,1 50825U 22001Y   24179.40861496  .00000693  00000-0  61591-4 0  9990,2 50825  53.2181  73.6776 0001139 101.7992 258.3128 15.08839119138030,6917.883,95.438,540.536,538.96,0.0
50825.0,STARLINK-3332,PAYLOAD,2024-06-27 20:56:07,15.08826038,0.0001137,53.2175,71.593,90.6945,269.4177,-5.4778e-05,-1.159e-05,0.0,0 STARLINK-3332,1 50825U 22001Y   24179.87230970 -.00001159  00000-0 -54778-4 0  9997,2 50825  53.2175  71.5930 0001137  90.6945 269.4177 15.08826038138105,6917.923,95.438,540.575,539.001,0.0
50825.0,STARLINK-3332,PAYLOAD,2024-06-27 22:31:30,15.08827608,0.0001274,53.218,71.2971,94.659,265.4547,-3.8127e-05,-8.94e-06,0.0,0 STARLINK-3332,1 50825U 22001Y   24179.93854895 -.00000894  00000-0 -38127-4 0  9997,2 50825  53.2180  71.2971 0001274  94.6590 265.4547 15.08827608136845,6917.918,95.438,540.665,538.902,0.0
50825.0,STARLINK-3332,PAYLOAD,2024-06-28 03:17:39,15.08840811,0.0001133,53.2172,70.4007,85.1618,274.9503,6.0908e-05,6.82e-06,0.0,0 STARLINK-3332,1 50825U 22001Y   24180.13725847  .00000682  00000-0  60908-4 0  9990,2 50825  53.2172  70.4007 0001133  85.1618 274.9503 15.08840811138140,6917.878,95.438,540.527,538.959,0.0
50825.0,STARLINK-3332,PAYLOAD,2024-06-28 09:39:11,15.08844962,0.0001268,53.2165,69.2142,77.764,282.3494,0.00015466,2.175e-05,0.0,0 STARLINK-3332,1 50825U 22001Y   24180.40221319  .00002175  00000-0  15466-3 0  9992,2 50825  53.2165  69.2142 0001268  77.7640 282.3494 15.08844962136915,6917.865,95.437,540.607,538.853,0.0
50825.0,STARLINK-3332,PAYLOAD,2024-06-28 20:46:54,15.08837024,0.0001026,53.2163,67.1288,62.8887,297.2209,-1.211e-05,-4.8e-06,0.0,0 STARLINK-3332,1 50825U 22001Y   24180.86590380 -.00000480  00000-0 -12110-4 0  9992,2 50825  53.2163  67.1288 0001026  62.8887 297.2209 15.08837024138250,6917.889,95.438,540.464,539.045,0.0
50825.0,STARLINK-3332,PAYLOAD,2024-06-28 22:22:17,15.08840008,0.0001285,53.2165,66.8317,66.4266,293.6861,1.5211e-05,-4.6e-07,0.0,0 STARLINK-3332,1 50825U 22001Y   24180.93214179 -.00000046  00000-0  15211-4 0  9991,2 50825  53.2165  66.8317 0001285  66.4266 293.6861 15.08840008136998,6917.88,95.438,540.634,538.856,0.0
50825.0,STARLINK-3332,PAYLOAD,2024-06-28 23:57:38,15.08854705,9.52e-05,53.2165,66.5358,95.4666,264.6435,0.00013883,1.923e-05,0.0,0 STARLINK-3332,1 50825U 22001Y   24180.99836737  .00001923  00000-0  13883-3 0  9993,2 50825  53.2165  66.5358 0000952  95.4666 264.6435 15.08854705138273,6917.835,95.437,540.359,539.042,0.0
50825.0,STARLINK-3332,PAYLOAD,2024-06-29 15:51:31,15.0882996,0.0001253,53.2168,63.5655,91.4316,268.682,9.9937e-05,1.303e-05,0.0,0 STARLINK-3332,1 50825U 22001Y   24181.66078685  .00001303  00000-0  99937-4 0  9995,2 50825  53.2168  63.5655 0001253  91.4316 268.6820 15.08829960138374,6917.911,95.438,540.643,538.909,0.0
50825.0,STARLINK-3332,PAYLOAD,2024-06-29 22:13:05,15.08827521,9.27e-05,53.217,62.3723,82.2731,277.8366,-3.8489e-05,-9e-06,0.0,0 STARLINK-3332,1 50825U 22001Y   24181.92575640 -.00000900  00000-0 -38489-4 0  9996,2 50825  53.2170  62.3723 0000927  82.2731 277.8366 15.08827521137148,6917.919,95.438,540.425,539.142,0.0
50825.0,STARLINK-3332,PAYLOAD,2024-06-30 01:23:52,15.08824401,0.0001082,53.2177,61.7767,100.4815,259.6299,-9.4386e-05,-1.789e-05,0.0,0 STARLINK-3332,1 50825U 22001Y   24182.05824075 -.00001789  00000-0 -94386-4 0  9994,2 50825  53.2177  61.7767 0001082 100.4815 259.6299 15.08824401138435,6917.928,95.439,540.542,539.045,0.0
50825.0,STARLINK-3332,PAYLOAD,2024-06-30 09:20:47,15.08834832,0.0001093,53.2173,60.2918,106.935,253.1762,-4.2778e-05,-9.68e-06,0.0,0 STARLINK-3332,1 50825U 22001Y   24182.38943471 -.00000968  00000-0 -42778-4 0  9998,2 50825  53.2173  60.2918 0001093 106.9350 253.1762 15.08834832138488,6917.896,95.438,540.517,539.005,0.0
50825.0,STARLINK-3332,PAYLOAD,2024-06-30 22:03:51,15.08838027,5.09e-05,53.2172,57.9143,85.3482,274.7568,8.4885e-05,1.064e-05,0.0,0 STARLINK-3332,1 50825U 22001Y   24182.91934712  .00001064  00000-0  84885-4 0  9996,2 50825  53.2172  57.9143 0000509  85.3482 274.7568 15.08838027138569,6917.886,95.438,540.104,539.399,0.0
50825.0,STARLINK-3332,PAYLOAD,2024-07-01 01:14:36,15.0886028,0.0001074,53.2168,57.3125,114.6304,245.48,7.603e-05,9.23e-06,0.0,0 STARLINK-3332,1 50825U 22001Y   24183.05181193  .00000923  00000-0  76030-4 0  9995,2 50825  53.2168  57.3125 0001074 114.6304 245.4800 15.08860280138587,6917.818,95.436,540.426,538.94,0.0
50825.0,STARLINK-3332,PAYLOAD,2024-07-01 09:11:31,15.08871564,0.0001429,53.2185,55.8296,139.7808,220.329,0.00012236,1.662e-05,0.0,0 STARLINK-3332,1 50825U 22001Y   24183.38299913  .00001662  00000-0  12236-3 0  9999,2 50825  53.2185  55.8296 0001429 139.7808 220.3290 15.08871564138637,6917.784,95.436,540.637,538.66,0.0
50825.0,STARLINK-3332,PAYLOAD,2024-07-01 21:54:38,15.08827832,0.0001182,53.2182,53.4505,105.3587,254.7536,0.00012947,1.773e-05,0.0,0 STARLINK-3332,1 50825U 22001Y   24183.91295009  .00001773  00000-0  12947-3 0  9992,2 50825  53.2182  53.4505 0001182 105.3587 254.7536 15.08827832138712,6917.918,95.438,540.6,538.965,0.0
50825.0,STARLINK-3332,PAYLOAD,2024-07-02 20:10:02,15.08840478,9.49e-05,53.2187,49.2892,94.2176,265.8924,-3.9168e-05,-9.11e-06,0.0,0 STARLINK-3332,1 50825U 22001Y   24184.84030962 -.00000911  00000-0 -39168-4 0  9990,2 50825  53.2187  49.2892 0000949  94.2176 265.8924 15.08840478138859,6917.879,95.438,540.4,539.087,0.0
50825.0,STARLINK-3332,PAYLOAD,2024-07-02 21:45:25,15.08848125,8.4e-05,53.2181,48.9919,90.5901,269.5187,-0.00013387,-2.418e-05,0.0,0 STARLINK-3332,1 50825U 22001Y   24184.90654748 -.00002418  00000-0 -13387-3 0  9999,2 50825  53.2181  48.9919 0000840  90.5901 269.5187 15.08848125137593,6917.856,95.437,540.302,539.139,0.0
50825.0,STARLINK-3332,PAYLOAD,2024-07-03 00:56:11,15.08848824,8.64e-05,53.2184,48.3975,91.5738,268.5353,-0.00011762,-2.16e-05,0.0,0 STARLINK-3332,1 50825U 22001Y   24185.03902590 -.00002160  00000-0 -11762-3 0  9994,2 50825  53.2184  48.3975 0000864  91.5738 268.5353 15.08848824138880,6917.853,95.437,540.316,539.121,0.0
50825.0,STARLINK-3332,PAYLOAD,2024-07-03 21:36:13,15.08818913,8.49e-05,53.2183,44.5306,94.9654,265.1435,0.00039206,5.954e-05,0.0,0 STARLINK-3332,1 50825U 22001Y   24185.90015095  .00005954  00000-0  39206-3 0  9990,2 50825  53.2183  44.5306 0000849  94.9654 265.1435 15.08818913139018,6917.945,95.439,540.397,539.223,0.0
50825.0,STARLINK-3332,PAYLOAD,2024-07-04 07:08:30,15.08849361,9.47e-05,53.2189,42.7458,87.7668,272.3432,0.00013932,1.931e-05,0.0,0 STARLINK-3332,1 50825U 22001Y   24186.29757498  .00001931  00000-0  13932-3 0  9992,2 50825  53.2189  42.7458 0000947  87.7668 272.3432 15.08849361139070,6917.852,95.437,540.372,539.062,0.0
50825.0,STARLINK-3332,PAYLOAD,2024-07-04 15:05:27,15.08840067,0.0001416,53.218,41.2629,108.8189,251.2957,3.4722e-05,2.65e-06,0.0,0 STARLINK-3332,1 50825U 22001Y   24186.62878545  .00000265  00000-0  34722-4 0  9996,2 50825  53.2180  41.2629 0001416 108.8189 251.2957 15.08840067137856,6917.88,95.438,540.725,538.766,0.0
